{"type": "FeatureCollection", "features": [ {"type": "Feature", "properties": {"norad_id": 30941, "name": "FENGYUN 1C DEB", "group": "fengyun-1c-debris", "lat": -80.6600586223186, "lon": -98.99758767535076, "alt_km": 786.6171630432282, "timestamp": "2025-12-03T20:47:58.503706+00:00", "meta": {"OBJECT_NAME": "FENGYUN 1C DEB", "OBJECT_ID": "1999-025BAF", "EPOCH": "2025-12-01T13:49:03.246528", "MEAN_MOTION": 14.30862739, "ECCENTRICITY": 0.00349916, "INCLINATION": 98.5501, "RA_OF_ASC_NODE": 192.5869, "ARG_OF_PERICENTER": 348.4723, "MEAN_ANOMALY": 11.5655, "EPHEMERIS_TYPE": 0, "CLASSIFICATION_TYPE": "U", "NORAD_CAT_ID": 30941, "ELEMENT_SET_NO": 999, "REV_AT_EPOCH": 96466, "BSTAR": 0.0018784871, "MEAN_MOTION_DOT": 4.921e-05, "MEAN_MOTION_DDOT": 0}, "tle": {"line1": "1 30941U 99025BAF 25335.57573202  .00004921  00000+0  18785-2 0  9997", "line2": "2 30941  98.5501 192.5869 0034991 348.4723  11.5655 14.30862739964661"}}, "geometry": {"type": "Point", "coordinates": [-98.99758767535076, -80.6600586223186]}}, {"type": "Feature", "properties": {"norad_id": 30942, "name": "FENGYUN 1C DEB", "group": "fengyun-1c-debris", "lat": 72.78506258430306, "lon": -53.18819385686714, "alt_km": 779.8839703802541, "timestamp": "2025-12-03T20:47:58.503716+00:00", "meta": {"OBJECT_NAME": "FENGYUN 1C DEB", "OBJECT_ID": "1999-025BAG", "EPOCH": "2025-12-03T11:01:30.273888", "MEAN_MOTION": 14.14824621, "ECCENTRICITY": 0.0137791, "INCLINATION": 98.6795, "RA_OF_ASC_NODE": 335.9541, "ARG_OF_PERICENTER": 132.6772, "MEAN_ANOMALY": 30.5187, "EPHEMERIS_TYPE": 0, "CLASSIFICATION_TYPE": "U", "NORAD_CAT_ID": 30942, "ELEMENT_SET_NO": 999, "REV_AT_EPOCH": 96513, "BSTAR": 0.00028422, "MEAN_MOTION_DOT": 5.59e-06, "MEAN_MOTION_DDOT": 0}, "tle": {"line1": "1 30942U 99025BAG 25337.45937817  .00000559  00000+0  28422-3 0  9996", "line2": "2 30942  98.6795 335.9541 0137791 132.6772  30.5187 14.14824621965131"}}, "geometry": {"type": "Point", "coordinates": [-53.18819385686714, 72.78506258430306]}}, {"type": "Feature", "properties": {"norad_id": 30943, "name": "FENGYUN 1C DEB", "group": "fengyun-1c-debris", "lat": 23.77559961939406, "lon": -11.848029370319463, "alt_km": 862.3800693614212, "timestamp": "2025-12-03T20:47:58.503727+00:00", "meta": {"OBJECT_NAME": "FENGYUN 1C DEB", "OBJECT_ID": "1999-025BAH", "EPOCH": "2025-12-03T07:00:26.603712", "MEAN_MOTION": 14.04475149, "ECCENTRICITY": 0.005107, "INCLINATION": 98.7976, "RA_OF_ASC_NODE": 351.5072, "ARG_OF_PERICENTER": 91.6064, "MEAN_ANOMALY": 269.0955, "EPHEMERIS_TYPE": 0, "CLASSIFICATION_TYPE": "U", "NORAD_CAT_ID": 30943, "ELEMENT_SET_NO": 999, "REV_AT_EPOCH": 95609, "BSTAR": 0.00022127, "MEAN_MOTION_DOT": 3.15e-06, "MEAN_MOTION_DDOT": 0}, "tle": {"line1": "1 30943U 99025BAH 25337.29197458  .00000315  00000+0  22127-3 0  9994", "line2": "2 30943  98.7976 351.5072 0051070  91.6064 269.0955 14.04475149956093"}}, "geometry": {"type": "Point", "coordinates": [-11.848029370319463, 23.77559961939406]}}, {"type": "Feature", "properties": {"norad_id": 30944, "name": "FENGYUN 1C DEB", "group": "fengyun-1c-debris", "lat": 62.28968563454632, "lon": -129.65844535463674, "alt_km": 607.634921512039, "timestamp": "2025-12-03T20:47:58.503737+00:00", "meta": {"OBJECT_NAME": "FENGYUN 1C DEB", "OBJECT_ID": "1999-025BAJ", "EPOCH": "2025-12-03T10:25:10.472736", "MEAN_MOTION": 14.52419453, "ECCENTRICITY": 0.0149228, "INCLINATION": 98.8519, "RA_OF_ASC_NODE": 32.6261, "ARG_OF_PERICENTER": 128.6265, "MEAN_ANOMALY": 247.8996, "EPHEMERIS_TYPE": 0, "CLASSIFICATION_TYPE": "U", "NORAD_CAT_ID": 30944, "ELEMENT_SET_NO": 999, "REV_AT_EPOCH": 98941, "BSTAR": 0.0002534, "MEAN_MOTION_DOT": 1.138e-05, "MEAN_MOTION_DDOT": 0}, "tle": {"line1": "1 30944U 99025BAJ 25337.43414899  .00001138  00000+0  25340-3 0  9996", "line2": "2 30944  98.8519  32.6261 0149228 128.6265 247.8996 14.52419453989412"}}, "geometry": {"type": "Point", "coordinates": [-129.65844535463674, 62.28968563454632]}}, {"type": "Feature", "properties": {"norad_id": 30945, "name": "FENGYUN 1C DEB", "group": "fengyun-1c-debris", "lat": -53.19066578468316, "lon": 153.07084025947373, "alt_km": 822.0328827577305, "timestamp": "2025-12-03T20:47:58.503748+00:00", "meta": {"OBJECT_NAME": "FENGYUN 1C DEB", "OBJECT_ID": "1999-025BAK", "EPOCH": "2025-12-02T00:17:47.503104", "MEAN_MOTION": 14.29563665, "ECCENTRICITY": 0.00310477, "INCLINATION": 99.3898, "RA_OF_ASC_NODE": 343.8484, "ARG_OF_PERICENTER": 68.7641, "MEAN_ANOMALY": 347.6072, "EPHEMERIS_TYPE": 0, "CLASSIFICATION_TYPE": "U", "NORAD_CAT_ID": 30945, "ELEMENT_SET_NO": 999, "REV_AT_EPOCH": 96284, "BSTAR": 0.0019395565, "MEAN_MOTION_DOT": 4.94e-05, "MEAN_MOTION_DDOT": 0}, "tle": {"line1": "1 30945U 99025BAK 25336.01235536  .00004940  00000+0  19396-2 0  9996", "line2": "2 30945  99.3898 343.8484 0031047  68.7641 347.6072 14.29563665962845"}}, "geometry": {"type": "Point", "coordinates": [153.07084025947373, -53.19066578468316]}}, {"type": "Feature", "properties": {"norad_id": 30946, "name": "FENGYUN 1C DEB", "group": "fengyun-1c-debris", "lat": -37.80852681035608, "lon": 99.53599042214962, "alt_km": 751.4241292981942, "timestamp": "2025-12-03T20:47:58.503758+00:00", "meta": {"OBJECT_NAME": "FENGYUN 1C DEB", "OBJECT_ID": "1999-025BAL", "EPOCH": "2025-12-03T03:19:05.054016", "MEAN_MOTION": 14.48042126, "ECCENTRICITY": 0.00891356, "INCLINATION": 99.0391, "RA_OF_ASC_NODE": 91.6624, "ARG_OF_PERICENTER": 221.5405, "MEAN_ANOMALY": 264.2594, "EPHEMERIS_TYPE": 0, "CLASSIFICATION_TYPE": "U", "NORAD_CAT_ID": 30946, "ELEMENT_SET_NO": 999, "REV_AT_EPOCH": 98212, "BSTAR": 0.0012382897, "MEAN_MOTION_DOT": 4.787e-05, "MEAN_MOTION_DDOT": 0}, "tle": {"line1": "1 30946U 99025BAL 25337.13825294  .00004787  00000+0  12383-2 0  9995", "line2": "2 30946  99.0391  91.6624 0089135 221.5405 264.2594 14.48042126982124"}}, "geometry": {"type": "Point", "coordinates": [99.53599042214962, -37.80852681035608]}}, {"type": "Feature", "properties": {"norad_id": 30947, "name": "FENGYUN 1C DEB", "group": "fengyun-1c-debris", "lat": -3.0082455711674094, "lon": -132.2569584512472, "alt_km": 759.0812249618439, "timestamp": "2025-12-03T20:47:58.503768+00:00", "meta": {"OBJECT_NAME": "FENGYUN 1C DEB", "OBJECT_ID": "1999-025BAM", "EPOCH": "2025-12-01T03:41:10.986432", "MEAN_MOTION": 14.3800177, "ECCENTRICITY": 0.00958788, "INCLINATION": 98.8087, "RA_OF_ASC_NODE": 224.4953, "ARG_OF_PERICENTER": 282.3771, "MEAN_ANOMALY": 76.6697, "EPHEMERIS_TYPE": 0, "CLASSIFICATION_TYPE": "U", "NORAD_CAT_ID": 30947, "ELEMENT_SET_NO": 999, "REV_AT_EPOCH": 98326, "BSTAR": 0.00036480125, "MEAN_MOTION_DOT": 1.114e-05, "MEAN_MOTION_DDOT": 0}, "tle": {"line1": "1 30947U 99025BAM 25335.15359938  .00001114  00000+0  36480-3 0  9999", "line2": "2 30947  98.8087 224.4953 0095878 282.3771  76.6697 14.38001770983261"}}, "geometry": {"type": "Point", "coordinates": [-132.2569584512472, -3.0082455711674094]}}, {"type": "Feature", "properties": {"norad_id": 30949, "name": "FENGYUN 1C DEB", "group": "fengyun-1c-debris", "lat": -30.804513799147525, "lon": -22.310572975705377, "alt_km": 767.6735653789792, "timestamp": "2025-12-03T20:47:58.503778+00:00", "meta": {"OBJECT_NAME": "FENGYUN 1C DEB", "OBJECT_ID": "1999-025BAP", "EPOCH": "2025-12-03T05:44:41.610336", "MEAN_MOTION": 14.14031316, "ECCENTRICITY": 0.0116792, "INCLINATION": 98.6975, "RA_OF_ASC_NODE": 331.8424, "ARG_OF_PERICENTER": 337.0656, "MEAN_ANOMALY": 40.603, "EPHEMERIS_TYPE": 0, "CLASSIFICATION_TYPE": "U", "NORAD_CAT_ID": 30949, "ELEMENT_SET_NO": 999, "REV_AT_EPOCH": 96382, "BSTAR": 0.00036255, "MEAN_MOTION_DOT": 6.92e-06, "MEAN_MOTION_DDOT": 0}, "tle": {"line1": "1 30949U 99025BAP 25337.23937049  .00000692  00000+0  36255-3 0  9997", "line2": "2 30949  98.6975 331.8424 0116792 337.0656  40.6030 14.14031316963827"}}, "geometry": {"type": "Point", "coordinates": [-22.310572975705377, -30.804513799147525]}}, {"type": "Feature", "properties": {"norad_id": 30954, "name": "FENGYUN 1C DEB", "group": "fengyun-1c-debris", "lat": -13.934767783850635, "lon": 80.36831314272722, "alt_km": 910.6804935599766, "timestamp": "2025-12-03T20:47:58.503788+00:00", "meta": {"OBJECT_NAME": "FENGYUN 1C DEB", "OBJECT_ID": "1999-025BAU", "EPOCH": "2025-12-03T12:27:02.178144", "MEAN_MOTION": 14.14849679, "ECCENTRICITY": 0.0128478, "INCLINATION": 98.7142, "RA_OF_ASC_NODE": 77.8477, "ARG_OF_PERICENTER": 213.4285, "MEAN_ANOMALY": 160.6222, "EPHEMERIS_TYPE": 0, "CLASSIFICATION_TYPE": "U", "NORAD_CAT_ID": 30954, "ELEMENT_SET_NO": 999, "REV_AT_EPOCH": 96257, "BSTAR": 0.002021, "MEAN_MOTION_DOT": 4.182e-05, "MEAN_MOTION_DDOT": 0}, "tle": {"line1": "1 30954U 99025BAU 25337.51877521  .00004182  00000+0  20210-2 0  9993", "line2": "2 30954  98.7142  77.8477 0128478 213.4285 160.6222 14.14849679962570"}}, "geometry": {"type": "Point", "coordinates": [80.36831314272722, -13.934767783850635]}}, {"type": "Feature", "properties": {"norad_id": 30956, "name": "FENGYUN 1C DEB", "group": "fengyun-1c-debris", "lat": 3.9985497273682404, "lon": 11.438478835736605, "alt_km": 811.8346932059167, "timestamp": "2025-12-03T20:47:58.503798+00:00", "meta": {"OBJECT_NAME": "FENGYUN 1C DEB", "OBJECT_ID": "1999-025BAW", "EPOCH": "2025-12-02T00:46:05.015136", "MEAN_MOTION": 14.14147869, "ECCENTRICITY": 0.0049602, "INCLINATION": 98.761, "RA_OF_ASC_NODE": 10.2575, "ARG_OF_PERICENTER": 13.9486, "MEAN_ANOMALY": 15.3987, "EPHEMERIS_TYPE": 0, "CLASSIFICATION_TYPE": "U", "NORAD_CAT_ID": 30956, "ELEMENT_SET_NO": 999, "REV_AT_EPOCH": 96156, "BSTAR": 0.0010026276, "MEAN_MOTION_DOT": 1.889e-05, "MEAN_MOTION_DDOT": 0}, "tle": {"line1": "1 30956U 99025BAW 25336.03200249  .00001889  00000+0  10026-2 0  9993", "line2": "2 30956  98.7610  10.2575 0049602  13.9486  15.3987 14.14147869961563"}}, "geometry": {"type": "Point", "coordinates": [11.438478835736605, 3.9985497273682404]}}]}